GLOBALSTAR M084         
1 38040U 11080A   25043.45468878 -.00000080  00000+0  13205-3 0  9991
2 38040  52.0009  68.2030 0000708 117.7665  30.4677 12.62262085606913
GLOBALSTAR M080         
1 38041U 11080B   25043.58623476 -.00000076  00000+0  15562-3 0  9996
2 38041  52.0061  69.3696 0000893 104.0044  39.8476 12.62276964607054
GLOBALSTAR M082         
1 38042U 11080C   25043.44623183 -.00000100  00000+0  23703-4 0  9992
2 38042  52.0093  25.2245 0000183 302.1570 227.4200 12.62272950607745
GLOBALSTAR M092         
1 38043U 11080D   25043.56105164 -.00000081  00000+0  12908-3 0  9992
2 38043  52.0080 115.2463 0000700 126.6431 324.9599 12.62272948606216
GLOBALSTAR M090         
1 38044U 11080E   25043.63182128 -.00000100  00000+0  22965-4 0  9993
2 38044  51.9907  18.6297 0000241  47.1232 125.3413 12.62266657607882
GLOBALSTAR M086         
1 38045U 11080F   25043.65799818 -.00000095  00000+0  49117-4 0  9997
2 38045  51.9918  19.0910 0001184  53.2319 118.6736 12.62266540607832
GLOBALSTAR M097         
1 39072U 13005A   25043.40932348 -.00000067  00000+0  20798-3 0  9999
2 39072  52.0053 294.2734 0000875  57.7575 302.3376 12.62269866555057
GLOBALSTAR M093         
1 39073U 13005B   25043.38231596 -.00000062  00000+0  23092-3 0  9999
2 39073  51.9812 287.8539 0000870  57.0952 302.9998 12.62261491555004
